H1 CPF 01  gfz 2021 03 24 13  5832 tandemx   
H2 1003001  6202 36605    2021 03 24 12 59 42 2021 03 29 00 00 42   120 1 1  0 0 0
H9
10 0 59299  56142.000000  0    3366604.069   3299858.559  -5030936.981
10 0 59299  56262.000000  0    3954135.572   3569264.484  -4376357.138
10 0 59299  56382.000000  0    4476980.282   3766875.011  -3645121.102
10 0 59299  56502.000000  0    4924683.681   3890405.327  -2849969.047
10 0 59299  56622.000000  0    5288057.933   3939029.095  -2004792.604
10 0 59299  56742.000000  0    5559377.076   3913377.010  -1124394.228
10 0 59299  56862.000000  0    5732546.722   3815505.178   -224225.855
10 0 59299  56982.000000  0    5803243.788   3648834.712    679886.774
10 0 59299  57102.000000  0    5769022.646   3418062.872   1572029.890
10 0 59299  57222.000000  0    5629383.015   3129047.541   2436490.658
10 0 59299  57342.000000  0    5385798.685   2788669.283   3258042.675
10 0 59299  57462.000000  0    5041705.772   2404673.183   4022222.428
10 0 59299  57582.000000  0    4602449.713   1985494.478   4715588.774
10 0 59299  57702.000000  0    4075196.897   1540074.227   5325959.382
10 0 59299  57822.000000  0    3468810.787   1077668.997   5842626.289
10 0 59299  57942.000000  0    2793692.618    607657.384   6256539.491
10 0 59299  58062.000000  0    2061596.438    139350.292   6560457.607
10 0 59299  58182.000000  0    1285421.436   -318191.821   6749069.024
10 0 59299  58302.000000  0     478981.915   -756333.609   6819081.091
10 0 59299  58422.000000  0    -343240.430  -1167027.360   6769273.213
10 0 59299  58542.000000  0   -1166356.354  -1542960.356   6600516.138
10 0 59299  58662.000000  0   -1975337.745  -1877685.219   6315756.310
10 0 59299  58782.000000  0   -2755289.680  -2165729.739   5919967.257
10 0 59299  58902.000000  0   -3491724.918  -2402687.303   5420071.097
10 0 59299  59022.000000  0   -4170838.376  -2585286.652   4824823.862
10 0 59299  59142.000000  0   -4779771.172  -2711437.465   4144666.230
10 0 59299  59262.000000  0   -5306860.409  -2780250.678   3391543.668
10 0 59299  59382.000000  0   -5741869.703  -2792033.729   2578699.147
10 0 59299  59502.000000  0   -6076196.542  -2748261.563   1720440.393
10 0 59299  59622.000000  0   -6303050.535  -2651523.717    831883.440
10 0 59299  59742.000000  0   -6417595.353  -2505445.946    -71321.209
10 0 59299  59862.000000  0   -6417053.114  -2314590.655   -973272.177
10 0 59299  59982.000000  0   -6300766.777  -2084337.653  -1858107.408
10 0 59299  60102.000000  0   -6070218.066  -1820749.034  -2710291.233
10 0 59299  60222.000000  0   -5729003.204  -1530421.788  -3514892.432
10 0 59299  60342.000000  0   -5282767.133  -1220332.074  -4257848.254
10 0 59299  60462.000000  0   -4739098.713   -897675.155  -4926209.028
10 0 59299  60582.000000  0   -4107389.718   -569704.447  -5508359.442
10 0 59299  60702.000000  0   -3398661.103   -243574.066  -5994212.007
10 0 59299  60822.000000  0   -2625362.347     73811.972  -6375370.531
10 0 59299  60942.000000  0   -1801148.497    375940.369  -6645263.197
10 0 59299  61062.000000  0    -940638.027    656816.296  -6799244.798
10 0 59299  61182.000000  0     -59156.970    911077.969  -6834667.446
10 0 59299  61302.000000  0     827527.127   1134095.577  -6750920.173
10 0 59299  61422.000000  0    1703479.680   1322052.637  -6549440.891
10 0 59299  61542.000000  0    2552880.044   1472010.864  -6233695.120
10 0 59299  61662.000000  0    3360302.536   1581955.805  -5809122.321
10 0 59299  61782.000000  0    4110992.884   1650822.517  -5283050.627
10 0 59299  61902.000000  0    4791137.862   1678501.887  -4664582.611
10 0 59299  62022.000000  0    5388124.483   1665827.159  -3964448.963
10 0 59299  62142.000000  0    5890781.038   1614539.941  -3194831.561
10 0 59299  62262.000000  0    6289595.994   1527236.406  -2369159.500
10 0 59299  62382.000000  0    6576910.649   1407295.037  -1501878.810
10 0 59299  62502.000000  0    6747078.064   1258786.596   -608198.900
10 0 59299  62622.000000  0    6796583.937   1086367.841    296178.588
10 0 59299  62742.000000  0    6724124.445    895162.858   1195342.161
10 0 59299  62862.000000  0    6530642.738    690634.179   2073457.820
10 0 59299  62982.000000  0    6219318.893    478445.983   2915058.258
10 0 59299  63102.000000  0    5795513.755    264324.238   3705322.963
10 0 59299  63222.000000  0    5266669.258     53916.829   4430345.641
10 0 59299  63342.000000  0    4642168.811   -147341.064   5077380.927
10 0 59299  63462.000000  0    3933160.991   -334356.183   5635069.994
10 0 59299  63582.000000  0    3152349.472   -502495.678   6093636.344
10 0 59299  63702.000000  0    2313757.668   -647692.044   6445051.973
10 0 59299  63822.000000  0    1432471.709   -766534.072   6683172.238
10 0 59299  63942.000000  0     524364.992   -856341.671   6803838.686
10 0 59299  64062.000000  0    -394190.069   -915222.806   6804946.203
10 0 59299  64182.000000  0   -1306616.718   -942112.164   6686476.335
10 0 59299  64302.000000  0   -2196431.707   -936790.450   6450496.977
10 0 59299  64422.000000  0   -3047541.308   -899883.872   6101128.342
10 0 59299  64542.000000  0   -3844532.794   -832844.081   5644477.203
10 0 59299  64662.000000  0   -4572957.825   -737909.705   5088536.998
10 0 59299  64782.000000  0   -5219601.217   -618049.480   4443053.594
10 0 59299  64902.000000  0   -5772728.803   -476887.741   3719358.329
10 0 59299  65022.000000  0   -6222308.910   -318613.889   2930171.372
10 0 59299  65142.000000  0   -6560204.195   -147877.675   2089379.560
10 0 59299  65262.000000  0   -6780329.541     30327.806   1211789.266
10 0 59299  65382.000000  0   -6878769.372    210791.443    312859.279
10 0 59299  65502.000000  0   -6853851.573    388215.324   -591579.887
10 0 59299  65622.000000  0   -6706175.594    557348.754  -1485614.184
10 0 59299  65742.000000  0   -6438594.162    713120.810  -2353533.778
10 0 59299  65862.000000  0   -6056152.748    850768.541  -3180115.355
10 0 59299  65982.000000  0   -5565983.833    965957.974  -3950895.683
10 0 59299  66102.000000  0   -4977159.946   1054894.144  -4652424.722
10 0 59299  66222.000000  0   -4300512.746   1114417.831  -5272496.607
10 0 59299  66342.000000  0   -3548422.131   1142086.931  -5800354.280
10 0 59299  66462.000000  0   -2734581.297   1136240.690  -6226865.973
10 0 59299  66582.000000  0   -1873742.740   1096045.727  -6544671.542
10 0 59299  66702.000000  0    -981449.405   1021524.901  -6748298.270
10 0 59299  66822.000000  0     -73756.764    913566.729  -6834243.844
10 0 59299  66942.000000  0     833048.655    773916.405  -6801029.418
10 0 59299  67062.000000  0    1722733.959    605148.134  -6649224.887
10 0 59299  67182.000000  0    2579404.972    410618.913  -6381440.311
10 0 59299  67302.000000  0    3387784.675    194405.101  -6002285.869
10 0 59299  67422.000000  0    4133482.484    -38778.287  -5518299.931
10 0 59299  67542.000000  0    4803249.405   -283674.202  -4937847.213
10 0 59299  67662.000000  0    5385218.404   -534594.163  -4270986.662
10 0 59299  67782.000000  0    5869122.714   -785541.740  -3529307.028
10 0 59299  67902.000000  0    6246487.250  -1030346.248  -2725734.016
10 0 59299  68022.000000  0    6510789.437  -1262804.341  -1874310.573
10 0 59299  68142.000000  0    6657584.781  -1476825.591   -989952.814
10 0 59299  68262.000000  0    6684592.488  -1666578.641    -88186.443
10 0 59299  68382.000000  0    6591739.460  -1826634.525    815130.993
10 0 59299  68502.000000  0    6381159.616  -1952103.238   1704097.396
10 0 59299  68622.000000  0    6057148.429  -2038760.126   2563054.849
10 0 59299  68742.000000  0    5626073.884  -2083158.239   3376874.785
10 0 59299  68862.000000  0    5096245.097  -2082723.750   4131231.410
10 0 59299  68982.000000  0    4477743.830  -2035832.539   4812857.301
10 0 59299  69102.000000  0    3782224.961  -1941865.514   5409777.916
10 0 59299  69222.000000  0    3022687.878  -1801242.855   5911521.957
10 0 59299  69342.000000  0    2213224.632  -1615435.327   6309300.422
10 0 59299  69462.000000  0    1368753.032  -1386953.576   6596154.739
10 0 59299  69582.000000  0     504737.667  -1119315.313   6767072.912
10 0 59299  69702.000000  0    -363095.312   -816990.384   6819071.388
10 0 59299  69822.000000  0   -1219043.921   -485325.567   6751242.710
10 0 59299  69942.000000  0   -2047713.040   -130450.244   6564770.167
10 0 59299  70062.000000  0   -2834290.064    240836.374   6262908.673
10 0 59299  70182.000000  0   -3564809.959    621194.415   5850932.404
10 0 59299  70302.000000  0   -4226406.228   1002886.576   5336048.747
10 0 59299  70422.000000  0   -4807543.061   1377933.389   4727278.169
10 0 59299  70542.000000  0   -5298223.919   1738278.467   4035301.500
10 0 59299  70662.000000  0   -5690171.750   2075959.400   3272275.577
10 0 59299  70782.000000  0   -5976976.761   2383280.964   2451621.253
10 0 59299  70902.000000  0   -6154209.462   2652986.774   1587786.496
10 0 59299  71022.000000  0   -6219495.630   2878425.511    695987.375
10 0 59299  71142.000000  0   -6172548.852   3053706.701   -208067.810
10 0 59299  71262.000000  0   -6015160.970   3173842.165  -1108463.703
10 0 59299  71382.000000  0   -5751150.721   3234869.069  -1989366.985
10 0 59299  71502.000000  0   -5386271.486   3233952.556  -2835313.778
10 0 59299  71622.000000  0   -4928079.837   3169463.894  -3631487.000
10 0 59299  71742.000000  0   -4385770.461   3041033.486  -4363978.097
10 0 59299  71862.000000  0   -3769982.063   2849577.607  -5020027.580
10 0 59299  71982.000000  0   -3092579.946   2597298.723  -5588240.835
10 0 59299  72102.000000  0   -2366421.998   2287660.889  -6058776.154
10 0 59299  72222.000000  0   -1605110.976   1925340.657  -6423505.581
10 0 59299  72342.000000  0    -822738.309   1516153.775  -6676142.848
10 0 59299  72462.000000  0     -33626.543   1066960.890  -6812340.749
10 0 59299  72582.000000  0     747926.888    585553.365  -6829757.228
99
